OBJECT B                
1 51825U 22019B   25159.64289746  .00016324  00000+0  40358-3 0  9991
2 51825  97.3859 236.2665 0011144  60.8668 299.3692 15.40483645181751
